[{"OBJECT_NAME":"ISS OBJECT XT","OBJECT_ID":"1998-067XT","EPOCH":"2026-04-12T19:41:44.954880","MEAN_MOTION":15.8514595,"ECCENTRICITY":0.0009547,"INCLINATION":51.6194,"RA_OF_ASC_NODE":249.7505,"ARG_OF_PERICENTER":300.3872,"MEAN_ANOMALY":59.6188,"EPHEMERIS_TYPE":0,"CLASSIFICATION_TYPE":"U","NORAD_CAT_ID":66907,"ELEMENT_SET_NO":999,"REV_AT_EPOCH":2056,"BSTAR":0.0010606,"MEAN_MOTION_DOT":0.00264374,"MEAN_MOTION_DDOT":0},{"OBJECT_NAME":"ISS OBJECT XU","OBJECT_ID":"1998-067XU","EPOCH":"2026-04-12T16:29:47.148000","MEAN_MOTION":15.85524808,"ECCENTRICITY":0.0009403,"INCLINATION":51.6195,"RA_OF_ASC_NODE":250.3561,"ARG_OF_PERICENTER":297.8695,"MEAN_ANOMALY":62.1355,"EPHEMERIS_TYPE":0,"CLASSIFICATION_TYPE":"U","NORAD_CAT_ID":66908,"ELEMENT_SET_NO":999,"REV_AT_EPOCH":2054,"BSTAR":0.0010301,"MEAN_MOTION_DOT":0.0026139,"MEAN_MOTION_DDOT":0},{"OBJECT_NAME":"SILVERSAT","OBJECT_ID":"1998-067XV","EPOCH":"2026-04-11T10:36:27.151488","MEAN_MOTION":15.95566356,"ECCENTRICITY":0.00119176,"INCLINATION":51.6155,"RA_OF_ASC_NODE":254.7584,"ARG_OF_PERICENTER":300.1845,"MEAN_ANOMALY":59.7981,"EPHEMERIS_TYPE":0,"CLASSIFICATION_TYPE":"U","NORAD_CAT_ID":66909,"ELEMENT_SET_NO":999,"REV_AT_EPOCH":2037,"BSTAR":0.0014302467,"MEAN_MOTION_DOT":0.00588813,"MEAN_MOTION_DDOT":0.00015492762},{"OBJECT_NAME":"ISS OBJECT XW","OBJECT_ID":"1998-067XW","EPOCH":"2026-04-11T17:03:55.343808","MEAN_MOTION":15.81724614,"ECCENTRICITY":0.00089198,"INCLINATION":51.6192,"RA_OF_ASC_NODE":255.8381,"ARG_OF_PERICENTER":287.8602,"MEAN_ANOMALY":72.1427,"EPHEMERIS_TYPE":0,"CLASSIFICATION_TYPE":"U","NORAD_CAT_ID":66910,"ELEMENT_SET_NO":999,"REV_AT_EPOCH":2038,"BSTAR":0.0012146166,"MEAN_MOTION_DOT":0.00257233,"MEAN_MOTION_DDOT":0},{"OBJECT_NAME":"ISS OBJECT XY","OBJECT_ID":"1998-067XY","EPOCH":"2026-04-12T16:38:09.799008","MEAN_MOTION":15.71410289,"ECCENTRICITY":0.0006078,"INCLINATION":51.6243,"RA_OF_ASC_NODE":254.1963,"ARG_OF_PERICENTER":290.5576,"MEAN_ANOMALY":69.4769,"EPHEMERIS_TYPE":0,"CLASSIFICATION_TYPE":"U","NORAD_CAT_ID":66912,"ELEMENT_SET_NO":999,"REV_AT_EPOCH":2048,"BSTAR":0.00072734,"MEAN_MOTION_DOT":0.00095328,"MEAN_MOTION_DDOT":0},{"OBJECT_NAME":"KNACKSAT-2","OBJECT_ID":"1998-067XZ","EPOCH":"2026-04-12T19:49:31.994400","MEAN_MOTION":15.54776165,"ECCENTRICITY":0.0011219,"INCLINATION":51.6302,"RA_OF_ASC_NODE":261.8605,"ARG_OF_PERICENTER":314.2598,"MEAN_ANOMALY":45.7471,"EPHEMERIS_TYPE":0,"CLASSIFICATION_TYPE":"U","NORAD_CAT_ID":67683,"ELEMENT_SET_NO":999,"REV_AT_EPOCH":1009,"BSTAR":0.00041187,"MEAN_MOTION_DOT":0.00027598,"MEAN_MOTION_DDOT":0},{"OBJECT_NAME":"CORAL","OBJECT_ID":"1998-067YA","EPOCH":"2026-04-12T17:02:16.804608","MEAN_MOTION":15.60592917,"ECCENTRICITY":0.0014654,"INCLINATION":51.6277,"RA_OF_ASC_NODE":261.0828,"ARG_OF_PERICENTER":305.4884,"MEAN_ANOMALY":54.4741,"EPHEMERIS_TYPE":0,"CLASSIFICATION_TYPE":"U","NORAD_CAT_ID":67684,"ELEMENT_SET_NO":999,"REV_AT_EPOCH":1009,"BSTAR":0.00081674,"MEAN_MOTION_DOT":0.00069277,"MEAN_MOTION_DDOT":0},{"OBJECT_NAME":"GXIBA-1","OBJECT_ID":"1998-067YB","EPOCH":"2026-04-12T19:26:19.698144","MEAN_MOTION":15.55488952,"ECCENTRICITY":0.0013149,"INCLINATION":51.6293,"RA_OF_ASC_NODE":261.7532,"ARG_OF_PERICENTER":311.1274,"MEAN_ANOMALY":48.8581,"EPHEMERIS_TYPE":0,"CLASSIFICATION_TYPE":"U","NORAD_CAT_ID":67685,"ELEMENT_SET_NO":999,"REV_AT_EPOCH":1009,"BSTAR":0.00046623,"MEAN_MOTION_DOT":0.00032197,"MEAN_MOTION_DDOT":0},{"OBJECT_NAME":"UITMSAT-2","OBJECT_ID":"1998-067YC","EPOCH":"2026-04-12T17:16:50.884032","MEAN_MOTION":15.56822259,"ECCENTRICITY":0.0010157,"INCLINATION":51.629,"RA_OF_ASC_NODE":261.9051,"ARG_OF_PERICENTER":288.1908,"MEAN_ANOMALY":71.7978,"EPHEMERIS_TYPE":0,"CLASSIFICATION_TYPE":"U","NORAD_CAT_ID":67686,"ELEMENT_SET_NO":999,"REV_AT_EPOCH":1008,"BSTAR":0.00058189,"MEAN_MOTION_DOT":0.00042359,"MEAN_MOTION_DDOT":0},{"OBJECT_NAME":"HMU-SAT2","OBJECT_ID":"1998-067YD","EPOCH":"2026-04-12T18:04:45.312672","MEAN_MOTION":15.55178097,"ECCENTRICITY":0.0009702,"INCLINATION":51.6307,"RA_OF_ASC_NODE":262.1285,"ARG_OF_PERICENTER":290.3141,"MEAN_ANOMALY":69.6806,"EPHEMERIS_TYPE":0,"CLASSIFICATION_TYPE":"U","NORAD_CAT_ID":67687,"ELEMENT_SET_NO":999,"REV_AT_EPOCH":1000,"BSTAR":0.00044862,"MEAN_MOTION_DOT":0.00030548,"MEAN_MOTION_DDOT":0},{"OBJECT_NAME":"LEOPARD","OBJECT_ID":"1998-067YE","EPOCH":"2026-04-12T17:33:42.474240","MEAN_MOTION":15.56211293,"ECCENTRICITY":0.0009753,"INCLINATION":51.6291,"RA_OF_ASC_NODE":261.9837,"ARG_OF_PERICENTER":288.6185,"MEAN_ANOMALY":71.3746,"EPHEMERIS_TYPE":0,"CLASSIFICATION_TYPE":"U","NORAD_CAT_ID":67688,"ELEMENT_SET_NO":999,"REV_AT_EPOCH":1000,"BSTAR":0.00053345,"MEAN_MOTION_DOT":0.00037885,"MEAN_MOTION_DDOT":0},{"OBJECT_NAME":"CREW DRAGON 12","OBJECT_ID":"2026-031A","EPOCH":"2026-04-12T20:15:46.040832","MEAN_MOTION":15.48888784,"ECCENTRICITY":0.0006461,"INCLINATION":51.632,"RA_OF_ASC_NODE":263.4801,"ARG_OF_PERICENTER":305.2591,"MEAN_ANOMALY":54.7792,"EPHEMERIS_TYPE":0,"CLASSIFICATION_TYPE":"U","NORAD_CAT_ID":67796,"ELEMENT_SET_NO":999,"REV_AT_EPOCH":56165,"BSTAR":0.00010566,"MEAN_MOTION_DOT":5.354e-5,"MEAN_MOTION_DDOT":0},{"OBJECT_NAME":"PROGRESS-MS 33","OBJECT_ID":"2026-058A","EPOCH":"2026-04-12T20:15:46.040832","MEAN_MOTION":15.48888784,"ECCENTRICITY":0.0006461,"INCLINATION":51.632,"RA_OF_ASC_NODE":263.4801,"ARG_OF_PERICENTER":305.2591,"MEAN_ANOMALY":54.7792,"EPHEMERIS_TYPE":0,"CLASSIFICATION_TYPE":"U","NORAD_CAT_ID":68319,"ELEMENT_SET_NO":999,"REV_AT_EPOCH":316,"BSTAR":0.00010566,"MEAN_MOTION_DOT":5.354e-5,"MEAN_MOTION_DDOT":0},{"OBJECT_NAME":"CYGNUS NG-24","OBJECT_ID":"2026-079A","EPOCH":"2026-04-12T20:23:52.613664","MEAN_MOTION":16.10537511,"ECCENTRICITY":0.0006629,"INCLINATION":51.6616,"RA_OF_ASC_NODE":263.488,"ARG_OF_PERICENTER":293.1346,"MEAN_ANOMALY":66.897,"EPHEMERIS_TYPE":0,"CLASSIFICATION_TYPE":"U","NORAD_CAT_ID":68689,"ELEMENT_SET_NO":999,"REV_AT_EPOCH":22,"BSTAR":0.00022099,"MEAN_MOTION_DOT":0.00220277,"MEAN_MOTION_DDOT":3.5068e-5}]
