ISS OBJECT XT           
1 66907U 98067XT  26102.82065920  .00264374  00000+0  10606-2 0  9991
2 66907  51.6194 249.7505 0009547 300.3872  59.6188 15.85145950 20569
ISS OBJECT XU           
1 66908U 98067XU  26102.68735125  .00261390  00000+0  10301-2 0  9994
2 66908  51.6195 250.3561 0009403 297.8695  62.1355 15.85524808 20541
SILVERSAT               
1 66909U 98067XV  26101.44198092  .00588813  15493-3  14302-2 0  9997
2 66909  51.6155 254.7584 0011917 300.1845  59.7981 15.95566356 20372
ISS OBJECT XW           
1 66910U 98067XW  26101.71105722  .00257233  00000+0  12146-2 0  9994
2 66910  51.6192 255.8381 0008919 287.8602  72.1427 15.81724614 20385
ISS OBJECT XY           
1 66912U 98067XY  26102.69316897  .00095328  00000+0  72734-3 0  9996
2 66912  51.6243 254.1963 0006078 290.5576  69.4769 15.71410289 20485
KNACKSAT-2              
1 67683U 98067XZ  26102.82606475  .00027598  00000+0  41187-3 0  9993
2 67683  51.6302 261.8605 0011219 314.2598  45.7471 15.54776165 10098
CORAL                   
1 67684U 98067YA  26102.70991672  .00069277  00000+0  81674-3 0  9992
2 67684  51.6277 261.0828 0014654 305.4884  54.4741 15.60592917 10090
GXIBA-1                 
1 67685U 98067YB  26102.80995021  .00032197  00000+0  46623-3 0  9992
2 67685  51.6293 261.7532 0013149 311.1274  48.8581 15.55488952 10099
UITMSAT-2               
1 67686U 98067YC  26102.72003338  .00042359  00000+0  58189-3 0  9996
2 67686  51.6290 261.9051 0010157 288.1908  71.7978 15.56822259 10085
HMU-SAT2                
1 67687U 98067YD  26102.75330223  .00030548  00000+0  44862-3 0  9996
2 67687  51.6307 262.1285 0009702 290.3141  69.6806 15.55178097 10006
LEOPARD                 
1 67688U 98067YE  26102.73174160  .00037885  00000+0  53345-3 0  9998
2 67688  51.6291 261.9837 0009753 288.6185  71.3746 15.56211293 10003
CREW DRAGON 12          
1 67796U 26031A   26102.84428288  .00005354  00000+0  10566-3 0  9999
2 67796  51.6320 263.4801 0006461 305.2591  54.7792 15.48888784561658
PROGRESS-MS 33          
1 68319U 26058A   26102.84428288  .00005354  00000+0  10566-3 0  9990
2 68319  51.6320 263.4801 0006461 305.2591  54.7792 15.48888784  3167
CYGNUS NG-24            
1 68689U 26079A   26102.84991451  .00220277  35068-4  22099-3 0  9994
2 68689  51.6616 263.4880 0006629 293.1346  66.8970 16.10537511   226
